{
  "type": "FeatureCollection",
  "features": [
    {
      "type": "Feature",
      "properties": {
        "norad_id": 34728,
        "name": "COSMOS 2251 DEB",
        "group": "cosmos-2251-debris",
        "lat": 54.13783154813125,
        "lon": 19.518520624000548,
        "alt_km": 660.4573766321428,
        "timestamp": "2025-12-27T14:26:30.916421+00:00",
        "meta_object_name": "COSMOS 2251 DEB",
        "meta_object_id": "1993-036YW",
        "meta_epoch": "2025-12-26T18:18:10.094976",
        "meta_mean_motion": 14.70962251,
        "meta_eccentricity": 0.00417457,
        "meta_inclination": 74.0156,
        "meta_ra_of_asc_node": 224.5108,
        "meta_arg_of_pericenter": 18.4003,
        "meta_mean_anomaly": 341.8666,
        "meta_ephemeris_type": 0,
        "meta_classification_type": "U",
        "meta_norad_cat_id": 34728,
        "meta_element_set_no": 999,
        "meta_rev_at_epoch": 89006,
        "meta_bstar": 0.00065234941,
        "meta_mean_motion_dot": 4.022e-05,
        "meta_mean_motion_ddot": 0,
        "tle_line1": "1 34728U 93036YW  25360.76261684  .00004022  00000+0  65235-3 0  9992",
        "tle_line2": "2 34728  74.0156 224.5108 0041745  18.4003 341.8666 14.70962251890062"
      },
      "geometry": {
        "type": "Point",
        "coordinates": [
          19.518520624000548,
          54.13783154813125
        ]
      }
    },
    {
      "type": "Feature",
      "properties": {
        "norad_id": 34729,
        "name": "COSMOS 2251 DEB",
        "group": "cosmos-2251-debris",
        "lat": 58.12145929953037,
        "lon": -3.5771366617672355,
        "alt_km": 605.0973916298699,
        "timestamp": "2025-12-27T14:26:30.916431+00:00",
        "meta_object_name": "COSMOS 2251 DEB",
        "meta_object_id": "1993-036YX",
        "meta_epoch": "2025-12-27T04:31:24.449088",
        "meta_mean_motion": 14.83226319,
        "meta_eccentricity": 0.00121376,
        "meta_inclination": 74.0183,
        "meta_ra_of_asc_node": 329.8018,
        "meta_arg_of_pericenter": 81.4706,
        "meta_mean_anomaly": 294.8875,
        "meta_ephemeris_type": 0,
        "meta_classification_type": "U",
        "meta_norad_cat_id": 34729,
        "meta_element_set_no": 999,
        "meta_rev_at_epoch": 88672,
        "meta_bstar": 0.0024708924,
        "meta_mean_motion_dot": 0.00020246,
        "meta_mean_motion_ddot": 0,
        "tle_line1": "1 34729U 93036YX  25361.18847742  .00020246  00000+0  24709-2 0  9991",
        "tle_line2": "2 34729  74.0183 329.8018 0012137  81.4706 294.8875 14.83226319886724"
      },
      "geometry": {
        "type": "Point",
        "coordinates": [
          -3.5771366617672355,
          58.12145929953037
        ]
      }
    },
    {
      "type": "Feature",
      "properties": {
        "norad_id": 34732,
        "name": "COSMOS 2251 DEB",
        "group": "cosmos-2251-debris",
        "lat": 0.11898977313127762,
        "lon": -114.61889251278077,
        "alt_km": 713.3442903141868,
        "timestamp": "2025-12-27T14:26:30.916442+00:00",
        "meta_object_name": "COSMOS 2251 DEB",
        "meta_object_id": "1993-036ZA",
        "meta_epoch": "2025-12-27T03:47:09.341664",
        "meta_mean_motion": 14.47316907,
        "meta_eccentricity": 0.00400123,
        "meta_inclination": 74.0455,
        "meta_ra_of_asc_node": 66.2445,
        "meta_arg_of_pericenter": 214.4956,
        "meta_mean_anomaly": 173.0696,
        "meta_ephemeris_type": 0,
        "meta_classification_type": "U",
        "meta_norad_cat_id": 34732,
        "meta_element_set_no": 999,
        "meta_rev_at_epoch": 88352,
        "meta_bstar": 0.00016138435,
        "meta_mean_motion_dot": 5.69e-06,
        "meta_mean_motion_ddot": 0,
        "tle_line1": "1 34732U 93036ZA  25361.15774701  .00000569  00000+0  16138-3 0  9990",
        "tle_line2": "2 34732  74.0455  66.2445 0040012 214.4956 173.0696 14.47316907883521"
      },
      "geometry": {
        "type": "Point",
        "coordinates": [
          -114.61889251278077,
          0.11898977313127762
        ]
      }
    },
    {
      "type": "Feature",
      "properties": {
        "norad_id": 34736,
        "name": "COSMOS 2251 DEB",
        "group": "cosmos-2251-debris",
        "lat": -73.98464623161041,
        "lon": -86.06105058271461,
        "alt_km": 382.6403359132846,
        "timestamp": "2025-12-27T14:26:30.916452+00:00",
        "meta_object_name": "COSMOS 2251 DEB",
        "meta_object_id": "1993-036ZE",
        "meta_epoch": "2025-12-27T07:08:39.911424",
        "meta_mean_motion": 15.62788601,
        "meta_eccentricity": 0.0008307,
        "meta_inclination": 73.9965,
        "meta_ra_of_asc_node": 4.0115,
        "meta_arg_of_pericenter": 336.0819,
        "meta_mean_anomaly": 24.0014,
        "meta_ephemeris_type": 0,
        "meta_classification_type": "U",
        "meta_norad_cat_id": 34736,
        "meta_element_set_no": 999,
        "meta_rev_at_epoch": 88674,
        "meta_bstar": 0.0090030826,
        "meta_mean_motion_dot": 0.0089031,
        "meta_mean_motion_ddot": 0,
        "tle_line1": "1 34736U 93036ZE  25361.29768416  .00890310  00000+0  90031-2 0  9999",
        "tle_line2": "2 34736  73.9965   4.0115 0008307 336.0819  24.0014 15.62788601886741"
      },
      "geometry": {
        "type": "Point",
        "coordinates": [
          -86.06105058271461,
          -73.98464623161041
        ]
      }
    },
    {
      "type": "Feature",
      "properties": {
        "norad_id": 34738,
        "name": "COSMOS 2251 DEB",
        "group": "cosmos-2251-debris",
        "lat": 20.145663026423307,
        "lon": -70.54672543881532,
        "alt_km": 743.1121907411925,
        "timestamp": "2025-12-27T14:26:30.916462+00:00",
        "meta_object_name": "COSMOS 2251 DEB",
        "meta_object_id": "1993-036ZG",
        "meta_epoch": "2025-12-27T02:20:32.699616",
        "meta_mean_motion": 14.46336983,
        "meta_eccentricity": 0.00475977,
        "meta_inclination": 74.0159,
        "meta_ra_of_asc_node": 116.4311,
        "meta_arg_of_pericenter": 260.0922,
        "meta_mean_anomaly": 155.4152,
        "meta_ephemeris_type": 0,
        "meta_classification_type": "U",
        "meta_norad_cat_id": 34738,
        "meta_element_set_no": 999,
        "meta_rev_at_epoch": 88066,
        "meta_bstar": 0.00040900759,
        "meta_mean_motion_dot": 1.46e-05,
        "meta_mean_motion_ddot": 0,
        "tle_line1": "1 34738U 93036ZG  25361.09760069  .00001460  00000+0  40901-3 0  9997",
        "tle_line2": "2 34738  74.0159 116.4311 0047597 260.0922 155.4152 14.46336983880661"
      },
      "geometry": {
        "type": "Point",
        "coordinates": [
          -70.54672543881532,
          20.145663026423307
        ]
      }
    },
    {
      "type": "Feature",
      "properties": {
        "norad_id": 34750,
        "name": "COSMOS 2251 DEB",
        "group": "cosmos-2251-debris",
        "lat": 40.29951247969415,
        "lon": -172.56373408715552,
        "alt_km": 679.6738499016046,
        "timestamp": "2025-12-27T14:26:30.916472+00:00",
        "meta_object_name": "COSMOS 2251 DEB",
        "meta_object_id": "1993-036ZU",
        "meta_epoch": "2025-12-26T22:22:40.831392",
        "meta_mean_motion": 14.61470505,
        "meta_eccentricity": 0.0038217,
        "meta_inclination": 74.1071,
        "meta_ra_of_asc_node": 174.7283,
        "meta_arg_of_pericenter": 122.8481,
        "meta_mean_anomaly": 359.8296,
        "meta_ephemeris_type": 0,
        "meta_classification_type": "U",
        "meta_norad_cat_id": 34750,
        "meta_element_set_no": 999,
        "meta_rev_at_epoch": 88438,
        "meta_bstar": 0.0014743,
        "meta_mean_motion_dot": 7.361e-05,
        "meta_mean_motion_ddot": 0,
        "tle_line1": "1 34750U 93036ZU  25360.93241703  .00007361  00000+0  14743-2 0  9992",
        "tle_line2": "2 34750  74.1071 174.7283 0038217 122.8481 359.8296 14.61470505884386"
      },
      "geometry": {
        "type": "Point",
        "coordinates": [
          -172.56373408715552,
          40.29951247969415
        ]
      }
    },
    {
      "type": "Feature",
      "properties": {
        "norad_id": 34752,
        "name": "COSMOS 2251 DEB",
        "group": "cosmos-2251-debris",
        "lat": 73.80343904471984,
        "lon": 69.59052303100376,
        "alt_km": 525.5712311753186,
        "timestamp": "2025-12-27T14:26:30.916483+00:00",
        "meta_object_name": "COSMOS 2251 DEB",
        "meta_object_id": "1993-036ZW",
        "meta_epoch": "2025-12-27T04:25:51.654432",
        "meta_mean_motion": 15.00272869,
        "meta_eccentricity": 0.0047574,
        "meta_inclination": 74.0132,
        "meta_ra_of_asc_node": 331.199,
        "meta_arg_of_pericenter": 95.0099,
        "meta_mean_anomaly": 265.6521,
        "meta_ephemeris_type": 0,
        "meta_classification_type": "U",
        "meta_norad_cat_id": 34752,
        "meta_element_set_no": 999,
        "meta_rev_at_epoch": 90066,
        "meta_bstar": 0.0012230575,
        "meta_mean_motion_dot": 0.00015687,
        "meta_mean_motion_ddot": 0,
        "tle_line1": "1 34752U 93036ZW  25361.18462563  .00015687  00000+0  12231-2 0  9991",
        "tle_line2": "2 34752  74.0132 331.1990 0047574  95.0099 265.6521 15.00272869900663"
      },
      "geometry": {
        "type": "Point",
        "coordinates": [
          69.59052303100376,
          73.80343904471984
        ]
      }
    }
  ]
}